{
  "type": "FeatureCollection",
  "features": [
    {
      "type": "Feature",
      "properties": {
        "code": "GSP-BARK",
        "name": "Barking GSP"
      },
      "geometry": {
        "type": "Polygon",
        "coordinates": [[
          [0.05, 51.45],
          [0.2, 51.45],
          [0.2, 51.6],
          [0.05, 51.6],
          [0.05, 51.45]
        ]]
      }
    },
    {
      "type": "Feature",
      "properties": {
        "code": "GSP-BRAM",
        "name": "Bramford GSP"
      },
      "geometry": {
        "type": "Polygon",
        "coordinates": [[
          [0.9, 51.9],
          [1.3, 51.9],
          [1.3, 52.2],
          [0.9, 52.2],
          [0.9, 51.9]
        ]]
      }
    },
    {
      "type": "Feature",
      "properties": {
        "code": "GSP-NFLEET",
        "name": "Northfleet GSP"
      },
      "geometry": {
        "type": "Polygon",
        "coordinates": [[
          [0.2, 51.35],
          [0.5, 51.35],
          [0.5, 51.5],
          [0.2, 51.5],
          [0.2, 51.35]
        ]]
      }
    },
    {
      "type": "Feature",
      "properties": {
        "code": "GSP-CITY",
        "name": "City Road GSP"
      },
      "geometry": {
        "type": "Polygon",
        "coordinates": [[
          [-0.15, 51.5],
          [0.0, 51.5],
          [0.0, 51.58],
          [-0.15, 51.58],
          [-0.15, 51.5]
        ]]
      }
    },
    {
      "type": "Feature",
      "properties": {
        "code": "GSP-WHAM",
        "name": "West Ham GSP"
      },
      "geometry": {
        "type": "Polygon",
        "coordinates": [[
          [-0.05, 51.48],
          [0.1, 51.48],
          [0.1, 51.58],
          [-0.05, 51.58],
          [-0.05, 51.48]
        ]]
      }
    },
    {
      "type": "Feature",
      "properties": {
        "code": "GSP-CANB",
        "name": "Canterbury GSP"
      },
      "geometry": {
        "type": "Polygon",
        "coordinates": [[
          [0.9, 51.2],
          [1.2, 51.2],
          [1.2, 51.4],
          [0.9, 51.4],
          [0.9, 51.2]
        ]]
      }
    }
  ]
}
