{
  "type": "FeatureCollection",
  "features": [
    {
      "type": "Feature",
      "properties": {
        "code": "E09000001",
        "name": "City of London"
      },
      "geometry": {
        "type": "Polygon",
        "coordinates": [[
          [-0.11, 51.51],
          [-0.07, 51.51],
          [-0.07, 51.52],
          [-0.11, 51.52],
          [-0.11, 51.51]
        ]]
      }
    },
    {
      "type": "Feature",
      "properties": {
        "code": "E09000012",
        "name": "Hackney"
      },
      "geometry": {
        "type": "Polygon",
        "coordinates": [[
          [-0.08, 51.53],
          [-0.02, 51.53],
          [-0.02, 51.58],
          [-0.08, 51.58],
          [-0.08, 51.53]
        ]]
      }
    },
    {
      "type": "Feature",
      "properties": {
        "code": "E09000030",
        "name": "Tower Hamlets"
      },
      "geometry": {
        "type": "Polygon",
        "coordinates": [[
          [-0.07, 51.49],
          [-0.01, 51.49],
          [-0.01, 51.53],
          [-0.07, 51.53],
          [-0.07, 51.49]
        ]]
      }
    },
    {
      "type": "Feature",
      "properties": {
        "code": "E09000019",
        "name": "Islington"
      },
      "geometry": {
        "type": "Polygon",
        "coordinates": [[
          [-0.14, 51.53],
          [-0.08, 51.53],
          [-0.08, 51.58],
          [-0.14, 51.58],
          [-0.14, 51.53]
        ]]
      }
    },
    {
      "type": "Feature",
      "properties": {
        "code": "E09000025",
        "name": "Newham"
      },
      "geometry": {
        "type": "Polygon",
        "coordinates": [[
          [-0.01, 51.5],
          [0.08, 51.5],
          [0.08, 51.56],
          [-0.01, 51.56],
          [-0.01, 51.5]
        ]]
      }
    },
    {
      "type": "Feature",
      "properties": {
        "code": "E07000066",
        "name": "Basildon"
      },
      "geometry": {
        "type": "Polygon",
        "coordinates": [[
          [0.35, 51.52],
          [0.55, 51.52],
          [0.55, 51.62],
          [0.35, 51.62],
          [0.35, 51.52]
        ]]
      }
    },
    {
      "type": "Feature",
      "properties": {
        "code": "E07000108",
        "name": "Dover"
      },
      "geometry": {
        "type": "Polygon",
        "coordinates": [[
          [1.15, 51.08],
          [1.45, 51.08],
          [1.45, 51.25],
          [1.15, 51.25],
          [1.15, 51.08]
        ]]
      }
    },
    {
      "type": "Feature",
      "properties": {
        "code": "E07000202",
        "name": "Ipswich"
      },
      "geometry": {
        "type": "Polygon",
        "coordinates": [[
          [1.08, 52.02],
          [1.22, 52.02],
          [1.22, 52.1],
          [1.08, 52.1],
          [1.08, 52.02]
        ]]
      }
    }
  ]
}
