{
  "type": "FeatureCollection",
  "features": [
    {
      "type": "Feature",
      "properties": {
        "code": "RESP-EPN",
        "name": "Eastern Power Networks"
      },
      "geometry": {
        "type": "Polygon",
        "coordinates": [[
          [0.0, 51.3],
          [1.5, 51.3],
          [1.8, 52.0],
          [1.5, 52.7],
          [0.0, 52.5],
          [-0.5, 52.0],
          [0.0, 51.3]
        ]]
      }
    },
    {
      "type": "Feature",
      "properties": {
        "code": "RESP-LPN",
        "name": "London Power Networks"
      },
      "geometry": {
        "type": "Polygon",
        "coordinates": [[
          [-0.5, 51.3],
          [0.3, 51.3],
          [0.3, 51.7],
          [-0.5, 51.7],
          [-0.5, 51.3]
        ]]
      }
    },
    {
      "type": "Feature",
      "properties": {
        "code": "RESP-SPN",
        "name": "South Eastern Power Networks"
      },
      "geometry": {
        "type": "Polygon",
        "coordinates": [[
          [-1.0, 50.7],
          [1.5, 50.7],
          [1.5, 51.3],
          [0.3, 51.3],
          [-0.5, 51.3],
          [-0.5, 51.0],
          [-1.0, 50.7]
        ]]
      }
    }
  ]
}
